NAVSTAR 77 (USA 289)    
1 43873U 18109A   24098.52811010  .00000074  00000+0  00000+0 0  9994
2 43873  55.2684 123.8188 0028586 195.6396 336.5606  2.00552569 39012
